STARLINK-1113           
1 44926C 20001N   22166.80121810 -.00000289  00000-0 -19792-4 0  1665
2 44926  52.9998 344.8796 0001347  95.1188 231.9660 15.05589268    14
STARLINK-1114           
1 44927C 20001P   22166.80103825 -.00033273  00000-0 -22293-2 0  1669
2 44927  53.0540 344.8531 0001583  62.6201 246.3829 15.06432430    10
STARLINK-1119           
1 44928C 20001Q   22166.80069469  .00018957  00000-0  12699-2 0  1664
2 44928  53.0531 344.8567 0001434  56.5726 270.5276 15.06387482    10
STARLINK-1121           
1 44929C 20001R   22166.80745027  .00003355  00000-0  22480-3 0  1662
2 44929  53.0550 344.8251 0001481  55.8763  27.9302 15.06395476    13
STARLINK-1123           
1 44930C 20001S   22166.77255219  .00020020  00000-0  13411-2 0  1660
2 44930  53.0555 344.9859 0001356  71.7352   2.6790 15.06385352    10
STARLINK-1128           
1 44931C 20001T   22166.80867617  .00018839  00000-0  11288-2 0  1661
2 44931  53.0543 339.3983 0001890  45.4323 266.3104 15.10468652    11
STARLINK-1130 (DARKSAT) 
1 44932C 20001U   22166.80468569 -.00003312  00000-0 -22187-3 0  1668
2 44932  53.0539 344.8487 0001518  63.3211 245.4762 15.06405275    14
STARLINK-1144           
1 44933C 20001V   22166.45502462 -.00001774  00000-0 -11883-3 0  1662
2 44933  53.0553 346.4276 0001400  66.8366   4.6635 15.06404947    13
STARLINK-1071           
1 44934C 20001W   22166.80414507  .00023635  00000-0  15836-2 0  1663
2 44934  53.0558 324.8583 0001472  78.5896  17.2282 15.06374221    16
STARLINK-1079           
1 44937C 20001Z   22166.79131363  .00024607  00000-0  16486-2 0  1662
2 44937  53.0546 324.9118 0001448  78.3338  67.8698 15.06375892    10
STARLINK-1082           
1 44938C 20001AA  22166.79147573 -.00001927  00000-0 -12911-3 0  1665
2 44938  53.0555 324.9122 0001478  67.7477 259.3604 15.06403305    11
STARLINK-1083           
1 44939C 20001AB  22166.79897368 -.00001501  00000-0 -10057-3 0  1667
2 44939  53.0548 324.8722 0001410  64.3781 263.4121 15.06403819    16
STARLINK-1091           
1 44940C 20001AC  22166.76560795 -.00000572  00000-0 -38327-4 0  1665
2 44940  53.0550 325.0258 0001565  52.9905  33.7736 15.06401067    13
STARLINK-1094           
1 44941C 20001AD  22166.79876454  .00000594  00000-0  39778-4 0  1664
2 44941  53.0552 324.8796 0001454  59.9454  86.6843 15.06404342    18
STARLINK-1096           
1 44942C 20001AE  22166.80296208  .00023765  00000-0  15454-2 0  1668
2 44942  53.0545 324.7100 0001812 116.0864 206.0791 15.07477802    19
STARLINK-1100           
1 44943C 20001AF  22166.79515099  .00005376  00000-0  36015-3 0  1664
2 44943  53.0553 324.8957 0001324  75.5415 251.5231 15.06398411    10
STARLINK-1108           
1 44944C 20001AG  22166.81039398  .00010779  00000-0  72203-3 0  1663
2 44944  53.0555 324.8259 0001498  65.4311  84.3457 15.06395804    18
STARLINK-1109           
1 44945C 20001AH  22166.76161348  .00021370  00000-0  14314-2 0  1666
2 44945  53.0547 325.0352 0001479  59.3381  25.7141 15.06387640    13
STARLINK-1110           
1 44946C 20001AJ  22166.80505434  .00037253  00000-0  20022-2 0  1660
2 44946  53.0068 313.0163 0001444 140.8931  59.3118 15.14346694    18
STARLINK-1116           
1 44947C 20001AK  22166.79513014 -.00001430  00000-0 -95771-4 0  1667
2 44947  53.0546 324.8815 0001677  61.0509  85.8694 15.06407832    13
STARLINK-1122           
1 44949C 20001AM  22166.78559193  .00022957  00000-0  15378-2 0  1664
2 44949  53.0548 324.9327 0001561  73.8616 241.2900 15.06384778    19
STARLINK-1126           
1 44951C 20001AP  22166.79590035  .00035138  00000-0  19054-2 0  1668
2 44951  53.0043 313.9069 0001617 145.6287 202.6822 15.14032548    15
STARLINK-1117           
1 44952C 20001AQ  22166.80519023  .00025691  00000-0  17207-2 0  1660
2 44952  53.0550 324.8488 0001783  55.5685 105.9167 15.06386014    18
STARLINK-1124           
1 44953C 20001AR  22166.78681814  .00022948  00000-0  15372-2 0  1669
2 44953  53.0548 324.9158 0001462  77.9302 249.0089 15.06384776    15
STARLINK-1066           
1 44954C 20001AS  22166.80676108  .00027130  00000-0  18171-2 0  1661
2 44954  53.0565 304.8335 0001523  65.5054 294.5242 15.06384599    13
STARLINK-1069           
1 44955C 20001AT  22166.78471174  .00002794  00000-0  18718-3 0  1662
2 44955  53.0539 304.9425 0001670  52.1789 148.2181 15.06401198    18
STARLINK-1070           
1 44956C 20001AU  22166.80784550  .00026102  00000-0  17479-2 0  1662
2 44956  53.0538 304.8261 0001351  80.5477 270.4391 15.06392646    18
STARLINK-1074           
1 44957C 20001AV  22166.80662234  .00013690  00000-0  91703-3 0  1668
2 44957  53.0532 304.8295 0001346  74.1976 130.2457 15.06394375    14
STARLINK-1076           
1 44959C 20001AX  22166.80414727  .00012279  00000-0  82251-3 0  1662
2 44959  53.0541 304.8460 0001709  51.2510  54.6376 15.06393661    19
STARLINK-1080           
1 44961C 20001AZ  22166.78995656  .00027000  00000-0  18085-2 0  1668
2 44961  53.0542 304.9262 0001397  80.6163 268.2306 15.06383038    10
STARLINK-1086           
1 44964C 20001BC  22166.79218500  .00027099  00000-0  18150-2 0  1669
2 44964  53.0544 304.8955 0001198  83.0391 117.8912 15.06385467    12
STARLINK-1088           
1 44966C 20001BE  22166.79651010  .00016245  00000-0  10880-2 0  1661
2 44966  53.0552 304.8947 0001408  79.7791  24.6089 15.06397405    19
STARLINK-1089           
1 44967C 20001BF  22166.79741631  .00027014  00000-0  18096-2 0  1664
2 44967  53.0541 304.8831 0001580  67.1172 282.1942 15.06378544    17
STARLINK-1090           
1 44968C 20001BG  22166.79393380  .00027008  00000-0  18090-2 0  1666
2 44968  53.0542 304.9040 0001361  70.0531 280.3789 15.06383271    13
STARLINK-1092           
1 44969C 20001BH  22166.80813726  .00025930  00000-0  17368-2 0  1669
2 44969  53.0554 304.8393 0001304  80.4627  27.0201 15.06384477    19
STARLINK-1093           
1 44970C 20001BJ  22166.80382690  .00002395  00000-0  16045-3 0  1664
2 44970  53.0538 304.8464 0001358  89.9190 114.2169 15.06401436    17
STARLINK-1107           
1 44972C 20001BL  22166.80123009  .00005844  00000-0  39148-3 0  1664
2 44972  53.0555 304.8743 0001418  74.7179 275.3171 15.06398792    16
STARLINK-1115           
1 44973C 20001BM  22166.80068955  .00011054  00000-0  74056-3 0  1660
2 44973  53.0537 304.8698 0001446  65.6579  41.4661 15.06392894    13
STARLINK-1132           
1 45044C 20006A   22166.79530234  .00020592  00000-0  13793-2 0  1664
2 45044  53.0531 264.8995 0001780  44.9083 172.9931 15.06387693    14
STARLINK-1120           
1 45045C 20006B   22166.78074192  .00025079  00000-0  16796-2 0  1661
2 45045  53.0548 284.9415 0001805  43.8324 170.0598 15.06390501    17
STARLINK-1131           
1 45047C 20006D   22166.78577236  .00024494  00000-0  16404-2 0  1666
2 45047  53.0549 284.9387 0001329  62.3559 153.7646 15.06389527    13
STARLINK-1134           
1 45048C 20006E   22166.79271196  .00026436  00000-0  17706-2 0  1668
2 45048  53.0545 284.8923 0001270  81.4005 132.3719 15.06386496    14
STARLINK-1135           
1 45049C 20006F   22166.78129708  .00009112  00000-0  55480-3 0  1663
2 45049  53.0555 283.4019 0001546  52.5260 170.6347 15.09898101    11
STARLINK-1140           
1 45050C 20006G   22166.80225218  .00025876  00000-0  17334-2 0  1661
2 45050  53.0538 284.8501 0001311  62.1187 143.4263 15.06379275    18
STARLINK-1148           
1 45052C 20006J   22166.46073859 -.00002532  00000-0 -16967-3 0  1665
2 45052  53.0539 286.3863 0001465  70.3711  42.1140 15.06401084    16
STARLINK-1155           
1 45053C 20006K   22166.46965112  .00021238  00000-0  11810-2 0  1661
2 45053  53.0016 278.3641 0001003 123.9818   9.2178 15.13150012    18
STARLINK-1156           
1 45054C 20006L   22166.46198302  .00011348  00000-0  76035-3 0  1663
2 45054  53.0538 286.3953 0001328  82.2619  56.9868 15.06387786    16
STARLINK-1159           
1 45057C 20006P   22166.47307617  .00012475  00000-0  83588-3 0  1661
2 45057  53.0559 286.3316 0001265  77.2749  42.1693 15.06385932    17
STARLINK-1162           
1 45058C 20006Q   22166.46508632  .00011356  00000-0  76100-3 0  1660
2 45058  53.0551 286.3689 0001341  75.4153  40.6774 15.06381110    14
STARLINK-1165           
1 45059C 20006R   22166.47324571  .00013659  00000-0  91519-3 0  1669
2 45059  53.0550 286.3473 0001459  77.8279 322.5106 15.06383649    10
STARLINK-1166           
1 45060C 20006S   22166.47684235 -.00011500  00000-0 -77053-3 0  1669
2 45060  53.0541 286.3220 0001509  61.6417  18.2606 15.06409143    15
STARLINK-1169           
1 45061C 20006T   22166.47689473  .00011920  00000-0  79897-3 0  1661
2 45061  53.0533 286.3228 0001494  69.7998 330.3997 15.06373453    16
STARLINK-1171           
1 45062C 20006U   22166.47689279  .00012973  00000-0  86939-3 0  1660
2 45062  53.0544 286.3184 0001519  73.2478  46.9099 15.06376873    13
STARLINK-1133           
1 45064C 20006W   22166.77221010  .00015313  00000-0  10261-2 0  1665
2 45064  53.0535 265.0038 0001352  69.9736 142.6250 15.06381015    18
STARLINK-1139           
1 45065C 20006X   22166.77622622  .00027308  00000-0  18292-2 0  1669
2 45065  53.0536 264.9828 0001464  72.7086 141.6211 15.06381609    14
STARLINK-1145           
1 45066C 20006Y   22166.46500620 -.00009201  00000-0 -61652-3 0  1662
2 45066  53.0527 266.3719 0001465  64.2708  41.4217 15.06406356    18
STARLINK-1150           
1 45067C 20006Z   22166.47638978  .00014626  00000-0  98034-3 0  1661
2 45067  53.0554 266.3194 0001405  78.6041   8.8280 15.06368936    17
STARLINK-1161           
1 45068C 20006AA  22166.45953688  .00003993  00000-0  26759-3 0  1668
2 45068  53.0567 266.2685 0001487  78.9156  62.2438 15.06390098    19
STARLINK-1167           
1 45071C 20006AD  22166.45294966  .00012153  00000-0  81461-3 0  1668
2 45071  53.0533 266.4365 0001515  69.6789  70.5622 15.06370641    13
